GSAT0101 (GALILEO-PFM)  
1 37846U 11060A   25349.83381736 -.00000082  00000+0  00000+0 0  9997
2 37846  57.0520 346.7358 0003077 316.7426  43.2514  1.70475823 87990
GSAT0102 (GALILEO-FM2)  
1 37847U 11060B   25350.04905851 -.00000082  00000+0  00000+0 0  9993
2 37847  57.0527 346.7304 0005052 311.0932 226.4679  1.70476050 88007
GSAT0103 (GALILEO-FM3)  
1 38857U 12055A   25347.52759367  .00000001  00000+0  00000+0 0  9998
2 38857  55.6929 106.6448 0002682 268.8486  91.0883  1.70473367 81846
GSAT0201 (GALILEO 5)    
1 40128U 14050A   25348.00572820 -.00000099  00000+0  00000+0 0  9998
2 40128  49.0753 281.0120 1648005 172.3262 190.5827  1.85519648 74882
GSAT0202 (GALILEO 6)    
1 40129U 14050B   25348.26196786 -.00000097  00000+0  00000+0 0  9998
2 40129  49.0906 280.0852 1648713 173.0839 189.5459  1.85520414 77052
GSAT0203 (GALILEO 7)    
1 40544U 15017A   25350.78507424 -.00000081  00000+0  00000+0 0  9991
2 40544  56.8453 346.5695 0006478 273.4136  86.5288  1.70476093 66094
GSAT0204 (GALILEO 8)    
1 40545U 15017B   25348.69421688 -.00000085  00000+0  00000+0 0  9990
2 40545  56.8531 346.6443 0006191 264.5230  95.4250  1.70475755 29105
GSAT0205 (GALILEO 9)    
1 40889U 15045A   25347.28955482  .00000022  00000+0  00000+0 0  9990
2 40889  55.0031 226.7430 0006019  39.8542 320.2702  1.70473165 63847
GSAT0206 (GALILEO 10)   
1 40890U 15045B   25348.68338178  .00000034  00000+0  00000+0 0  9997
2 40890  55.0018 226.6995 0003978  38.8814 321.2332  1.70473242 63892
GSAT0209 (GALILEO 12)   
1 41174U 15079A   25347.67831072 -.00000001  00000+0  00000+0 0  9994
2 41174  55.7133 106.3552 0002431 349.5598  10.4024  1.70474514 61616
GSAT0208 (GALILEO 11)   
1 41175U 15079B   25346.72530985  .00000004  00000+0  00000+0 0  9991
2 41175  55.7111 106.3784 0001880 358.3144   1.6545  1.70474307 62017
GSAT0211 (GALILEO 14)   
1 41549U 16030A   25348.02255207  .00000028  00000+0  00000+0 0  9996
2 41549  55.1518 226.7881 0004070  16.5595 343.5367  1.70473201 59512
GSAT0210 (GALILEO 13)   
1 41550U 16030B   25351.21290035  .00000055  00000+0  00000+0 0  9991
2 41550  55.1502 226.6984 0000922 234.8094 125.2822  1.70473746 59561
GSAT0207 (GALILEO 15)   
1 41859U 16069A   25347.38504318  .00000000  00000+0  00000+0 0  9990
2 41859  55.3826 106.2323 0002242 321.9482  38.0041  1.70474447 56234
GSAT0212 (GALILEO 16)   
1 41860U 16069B   25351.34476002 -.00000009  00000+0  00000+0 0  9991
2 41860  55.3825 106.1181 0002075  22.8873 337.0809  1.70474701 56553
GSAT0213 (GALILEO 17)   
1 41861U 16069C   25350.53915263 -.00000009  00000+0  00000+0 0  9999
2 41861  55.3843 106.1481 0002539 282.5474  77.3840  1.70474953 56406
GSAT0214 (GALILEO 18)   
1 41862U 16069D   25348.92542013 -.00000006  00000+0  00000+0 0  9996
2 41862  55.3815 106.1855 0001423 290.4821  69.4663  1.70474813 56507
GSAT0215 (GALILEO 19)   
1 43055U 17079A   25345.89611181  .00000013  00000+0  00000+0 0  9997
2 43055  55.1303 226.6610 0001265 350.6161   9.4600  1.70473900 49794
GSAT0216 (GALILEO 20)   
1 43056U 17079B   25350.88008698  .00000053  00000+0  00000+0 0  9990
2 43056  55.1290 226.5236 0002419 322.2527  37.8290  1.70474167 49893
GSAT0217 (GALILEO 21)   
1 43057U 17079C   25350.51421659  .00000050  00000+0  00000+0 0  9994
2 43057  55.1271 226.5317 0002791 347.0782  13.0112  1.70474073 49877
GSAT0218 (GALILEO 22)   
1 43058U 17079D   25346.62814548  .00000017  00000+0  00000+0 0  9998
2 43058  55.1287 226.6365 0002841 306.3289  53.7237  1.70474063 49839
GSAT0221 (GALILEO 25)   
1 43564U 18060A   25350.63686027 -.00000080  00000+0  00000+0 0  9997
2 43564  57.2270 346.7122 0006714 284.7642  75.1785  1.70475939 46056
GSAT0222 (GALILEO 26)   
1 43565U 18060B   25348.50986435 -.00000084  00000+0  00000+0 0  9991
2 43565  57.2308 346.7727 0006113 264.5011  95.4481  1.70475606 46069
GSAT0219 (GALILEO 23)   
1 43566U 18060C   25349.90417679 -.00000082  00000+0  00000+0 0  9994
2 43566  57.2298 346.7365 0005825 287.9846  71.9699  1.70475845 46065
GSAT0220 (GALILEO 24)   
1 43567U 18060D   25347.77876625 -.00000085  00000+0  00000+0 0  9991
2 43567  57.2299 346.7937 0006100 285.5410  74.4106  1.70475925 46015
GSAT0223 (GALILEO 27)   
1 49809U 21116A   25350.84886161 -.00000079  00000+0  00000+0 0  9993
2 49809  57.2185 346.6017 0004427 254.1798 280.7094  1.70476101 25071
GSAT0224 (GALILEO 28)   
1 49810U 21116B   25350.96796767 -.00000079  00000+0  00000+0 0  9990
2 49810  57.2194 346.5971 0003795 257.7514 102.8295  1.70476122 25107
GSAT0225 (GALILEO 29)   
1 59598U 24079A   25350.39072020 -.00000010  00000+0  00000+0 0  9996
2 59598  55.0038 106.1932 0002139 182.0305 176.7742  1.70475011 10196
GSAT0227 (GALILEO 30)   
1 59600U 24079C   25349.98944813 -.00000009  00000+0  00000+0 0  9999
2 59600  54.9987 106.2033 0003099 115.4904 244.5024  1.70474874 10244
GSAT0232 (GALILEO 32)   
1 61182U 24167A   25349.38136633  .00000041  00000+0  00000+0 0  9997
2 61182  55.2399 226.3583 0001881 210.2547 331.0661  1.70473627  7746
GSAT0226 (GALILEO 31)   
1 61183U 24167B   25346.85148941  .00000019  00000+0  00000+0 0  9997
2 61183  55.2391 226.4330 0000842 113.0334  68.3038  1.70473602  7673
GALILEO A               
1 67160U 25302A   25351.56771957 -.00000008  00000+0  00000+0 0  9992
2 67160  54.2333 107.2640 0007404 239.3858 120.5001  1.72894122    11
GALILEO B               
1 67161U 25302B   25351.56766358 -.00000008  00000+0  00000+0 0  9992
2 67161  54.2323 107.2467 0005026 244.2530 115.6540  1.72975560    28
